WORLDVIEW-1 (WV-1)      
1 32060U 07041A   26200.32439517  .00003023  00000+0  12558-3 0  9998
2 32060  97.3906 319.6190 0001933 189.2818 170.8384 15.24584526 47777
WORLDVIEW-2 (WV-2)      
1 35946U 09055A   26200.31246039  .00000040  00000+0  27576-4 0  9998
2 35946  98.4753 273.3247 0005447 120.0430 240.1298 14.37907636880269
WORLDVIEW-3 (WV-3)      
1 40115U 14048A   26200.23986354  .00000361  00000+0  48509-4 0  9997
2 40115  97.8553 274.6288 0001600 150.1523 209.9783 14.85067565646664
