{"fetched_at":"2026-07-19T17:32:04.303Z","source":"https://celestrak.org/NORAD/elements/gp.php?NAME=WORLDVIEW&FORMAT=JSON","constellation":"worldview","records":[{"OBJECT_NAME":"WORLDVIEW-1 (WV-1)","OBJECT_ID":"2007-041A","EPOCH":"2026-07-19T07:47:07.742688","CLASSIFICATION_TYPE":"U","MEAN_MOTION":15.24584526,"ECCENTRICITY":0.00019337,"INCLINATION":97.3906,"RA_OF_ASC_NODE":319.619,"ARG_OF_PERICENTER":189.2818,"MEAN_ANOMALY":170.8384,"EPHEMERIS_TYPE":0,"NORAD_CAT_ID":32060,"ELEMENT_SET_NO":999,"REV_AT_EPOCH":4777,"BSTAR":0.00012557644,"MEAN_MOTION_DOT":0.00003023,"MEAN_MOTION_DDOT":0},{"OBJECT_NAME":"WORLDVIEW-2 (WV-2)","OBJECT_ID":"2009-055A","EPOCH":"2026-07-19T07:29:56.577696","CLASSIFICATION_TYPE":"U","MEAN_MOTION":14.37907636,"ECCENTRICITY":0.00054479,"INCLINATION":98.4753,"RA_OF_ASC_NODE":273.3247,"ARG_OF_PERICENTER":120.043,"MEAN_ANOMALY":240.1298,"EPHEMERIS_TYPE":0,"NORAD_CAT_ID":35946,"ELEMENT_SET_NO":999,"REV_AT_EPOCH":88026,"BSTAR":0.000027575761,"MEAN_MOTION_DOT":4e-7,"MEAN_MOTION_DDOT":0},{"OBJECT_NAME":"WORLDVIEW-3 (WV-3)","OBJECT_ID":"2014-048A","EPOCH":"2026-07-19T05:45:24.209856","CLASSIFICATION_TYPE":"U","MEAN_MOTION":14.85067565,"ECCENTRICITY":0.00016006,"INCLINATION":97.8553,"RA_OF_ASC_NODE":274.6288,"ARG_OF_PERICENTER":150.1523,"MEAN_ANOMALY":209.9783,"EPHEMERIS_TYPE":0,"NORAD_CAT_ID":40115,"ELEMENT_SET_NO":999,"REV_AT_EPOCH":64666,"BSTAR":0.00004850854,"MEAN_MOTION_DOT":0.00000361,"MEAN_MOTION_DDOT":0}]}
